{
  "type": "FeatureCollection",
  "features": [
    {
      "type": "Feature",
      "properties": {
        "norad_id": 32376,
        "name": "COSMO-SKYMED 2",
        "group": "resource",
        "lat": 9.611328975113627,
        "lon": -9.40625795651193,
        "alt_km": 624.1417392550284,
        "timestamp": "2025-12-13T22:39:29.364664+00:00",
        "meta_object_name": "COSMO-SKYMED 2",
        "meta_object_id": "2007-059A",
        "meta_epoch": "2025-12-13T07:18:38.868192",
        "meta_mean_motion": 14.82167811,
        "meta_eccentricity": 0.00014996,
        "meta_inclination": 97.8811,
        "meta_ra_of_asc_node": 168.62,
        "meta_arg_of_pericenter": 84.0204,
        "meta_mean_anomaly": 276.118,
        "meta_ephemeris_type": 0,
        "meta_classification_type": "U",
        "meta_norad_cat_id": 32376,
        "meta_element_set_no": 999,
        "meta_rev_at_epoch": 97446,
        "meta_bstar": 0.0001241313,
        "meta_mean_motion_dot": 9.36e-06,
        "meta_mean_motion_ddot": 0,
        "tle_line1": "1 32376U 07059A   25347.30461653  .00000936  00000+0  12413-3 0  9992",
        "tle_line2": "2 32376  97.8811 168.6200 0001499  84.0204 276.1180 14.82167811974465"
      },
      "geometry": {
        "type": "Point",
        "coordinates": [
          -9.40625795651193,
          9.611328975113627
        ]
      }
    },
    {
      "type": "Feature",
      "properties": {
        "norad_id": 32382,
        "name": "RADARSAT-2",
        "group": "resource",
        "lat": -71.21690929398345,
        "lon": 146.1614845271144,
        "alt_km": 799.8487740019737,
        "timestamp": "2025-12-13T22:39:29.364676+00:00",
        "meta_object_name": "RADARSAT-2",
        "meta_object_id": "2007-061A",
        "meta_epoch": "2025-12-13T08:02:35.868768",
        "meta_mean_motion": 14.29982544,
        "meta_eccentricity": 0.0001122,
        "meta_inclination": 98.5803,
        "meta_ra_of_asc_node": 351.9165,
        "meta_arg_of_pericenter": 85.5926,
        "meta_mean_anomaly": 274.5384,
        "meta_ephemeris_type": 0,
        "meta_classification_type": "U",
        "meta_norad_cat_id": 32382,
        "meta_element_set_no": 999,
        "meta_rev_at_epoch": 93939,
        "meta_bstar": 0.0001052507,
        "meta_mean_motion_dot": 2.28e-06,
        "meta_mean_motion_ddot": 0,
        "tle_line1": "1 32382U 07061A   25347.33513737  .00000228  00000+0  10525-3 0  9992",
        "tle_line2": "2 32382  98.5803 351.9165 0001122  85.5926 274.5384 14.29982544939398"
      },
      "geometry": {
        "type": "Point",
        "coordinates": [
          146.1614845271144,
          -71.21690929398345
        ]
      }
    },
    {
      "type": "Feature",
      "properties": {
        "norad_id": 32783,
        "name": "CARTOSAT-2A",
        "group": "resource",
        "lat": -63.2453426387273,
        "lon": 53.492299382701525,
        "alt_km": 636.3857376406149,
        "timestamp": "2025-12-13T22:39:29.364687+00:00",
        "meta_object_name": "CARTOSAT-2A",
        "meta_object_id": "2008-021A",
        "meta_epoch": "2025-12-13T06:42:37.133280",
        "meta_mean_motion": 14.78938692,
        "meta_eccentricity": 0.0011818,
        "meta_inclination": 97.793,
        "meta_ra_of_asc_node": 37.0861,
        "meta_arg_of_pericenter": 3.0351,
        "meta_mean_anomaly": 357.093,
        "meta_ephemeris_type": 0,
        "meta_classification_type": "U",
        "meta_norad_cat_id": 32783,
        "meta_element_set_no": 999,
        "meta_rev_at_epoch": 95132,
        "meta_bstar": 0.0001738853,
        "meta_mean_motion_dot": 1.234e-05,
        "meta_mean_motion_ddot": 0,
        "tle_line1": "1 32783U 08021A   25347.27959645  .00001234  00000+0  17389-3 0  9992",
        "tle_line2": "2 32783  97.7930  37.0861 0011818   3.0351 357.0930 14.78938692951320"
      },
      "geometry": {
        "type": "Point",
        "coordinates": [
          53.492299382701525,
          -63.2453426387273
        ]
      }
    },
    {
      "type": "Feature",
      "properties": {
        "norad_id": 33320,
        "name": "HUANJING 1A (HJ-1A)",
        "group": "resource",
        "lat": -0.7581674418218548,
        "lon": 156.09049317774972,
        "alt_km": 633.9239340204595,
        "timestamp": "2025-12-13T22:39:29.364698+00:00",
        "meta_object_name": "HUANJING 1A (HJ-1A)",
        "meta_object_id": "2008-041A",
        "meta_epoch": "2025-12-13T07:16:38.373888",
        "meta_mean_motion": 14.83398099,
        "meta_eccentricity": 0.00200719,
        "meta_inclination": 97.6544,
        "meta_ra_of_asc_node": 335.5783,
        "meta_arg_of_pericenter": 32.5253,
        "meta_mean_anomaly": 327.7194,
        "meta_ephemeris_type": 0,
        "meta_classification_type": "U",
        "meta_norad_cat_id": 33320,
        "meta_element_set_no": 999,
        "meta_rev_at_epoch": 93084,
        "meta_bstar": 0.00032134814,
        "meta_mean_motion_dot": 2.595e-05,
        "meta_mean_motion_ddot": 0,
        "tle_line1": "1 33320U 08041A   25347.30322192  .00002595  00000+0  32135-3 0  9994",
        "tle_line2": "2 33320  97.6544 335.5783 0020071  32.5253 327.7194 14.83398099930843"
      },
      "geometry": {
        "type": "Point",
        "coordinates": [
          156.09049317774972,
          -0.7581674418218548
        ]
      }
    },
    {
      "type": "Feature",
      "properties": {
        "norad_id": 33321,
        "name": "HUANJING 1B (HJ-1B)",
        "group": "resource",
        "lat": 38.409143117713576,
        "lon": -26.22311245165579,
        "alt_km": 595.1291822130179,
        "timestamp": "2025-12-13T22:39:29.364708+00:00",
        "meta_object_name": "HUANJING 1B (HJ-1B)",
        "meta_object_id": "2008-041B",
        "meta_epoch": "2025-12-13T06:17:21.259968",
        "meta_mean_motion": 14.82824604,
        "meta_eccentricity": 0.00381571,
        "meta_inclination": 97.6403,
        "meta_ra_of_asc_node": 339.2345,
        "meta_arg_of_pericenter": 74.047,
        "meta_mean_anomaly": 286.4943,
        "meta_ephemeris_type": 0,
        "meta_classification_type": "U",
        "meta_norad_cat_id": 33321,
        "meta_element_set_no": 999,
        "meta_rev_at_epoch": 93085,
        "meta_bstar": 0.00032822487,
        "meta_mean_motion_dot": 2.638e-05,
        "meta_mean_motion_ddot": 0,
        "tle_line1": "1 33321U 08041B   25347.26205162  .00002638  00000+0  32822-3 0  9998",
        "tle_line2": "2 33321  97.6403 339.2345 0038157  74.0470 286.4943 14.82824604930858"
      },
      "geometry": {
        "type": "Point",
        "coordinates": [
          -26.22311245165579,
          38.409143117713576
        ]
      }
    },
    {
      "type": "Feature",
      "properties": {
        "norad_id": 33331,
        "name": "GEOEYE 1",
        "group": "resource",
        "lat": -51.889054542165276,
        "lon": 69.70361160027046,
        "alt_km": 683.0548845918074,
        "timestamp": "2025-12-13T22:39:29.364719+00:00",
        "meta_object_name": "GEOEYE 1",
        "meta_object_id": "2008-042A",
        "meta_epoch": "2025-12-13T06:30:13.972320",
        "meta_mean_motion": 14.64814364,
        "meta_eccentricity": 0.00027313,
        "meta_inclination": 98.1252,
        "meta_ra_of_asc_node": 58.5451,
        "meta_arg_of_pericenter": 273.8714,
        "meta_mean_anomaly": 86.2177,
        "meta_ephemeris_type": 0,
        "meta_classification_type": "U",
        "meta_norad_cat_id": 33331,
        "meta_element_set_no": 999,
        "meta_rev_at_epoch": 92293,
        "meta_bstar": 0.00020100289,
        "meta_mean_motion_dot": 1.025e-05,
        "meta_mean_motion_ddot": 0,
        "tle_line1": "1 33331U 08042A   25347.27099505  .00001025  00000+0  20100-3 0  9998",
        "tle_line2": "2 33331  98.1252  58.5451 0002731 273.8714  86.2177 14.64814364922932"
      },
      "geometry": {
        "type": "Point",
        "coordinates": [
          69.70361160027046,
          -51.889054542165276
        ]
      }
    },
    {
      "type": "Feature",
      "properties": {
        "norad_id": 33396,
        "name": "THEOS",
        "group": "resource",
        "lat": -29.121676547469953,
        "lon": 50.82592036510108,
        "alt_km": 831.3249034456039,
        "timestamp": "2025-12-13T22:39:29.364729+00:00",
        "meta_object_name": "THEOS",
        "meta_object_id": "2008-049A",
        "meta_epoch": "2025-12-13T07:34:40.304928",
        "meta_mean_motion": 14.20096027,
        "meta_eccentricity": 0.00011645,
        "meta_inclination": 98.5864,
        "meta_ra_of_asc_node": 45.3879,
        "meta_arg_of_pericenter": 95.6762,
        "meta_mean_anomaly": 264.4547,
        "meta_ephemeris_type": 0,
        "meta_classification_type": "U",
        "meta_norad_cat_id": 33396,
        "meta_element_set_no": 999,
        "meta_rev_at_epoch": 89158,
        "meta_bstar": 1.7710308e-05,
        "meta_mean_motion_dot": -5e-08,
        "meta_mean_motion_ddot": 0,
        "tle_line1": "1 33396U 08049A   25347.31574427 -.00000005  00000+0  17710-4 0  9994",
        "tle_line2": "2 33396  98.5864  45.3879 0001164  95.6762 264.4547 14.20096027891583"
      },
      "geometry": {
        "type": "Point",
        "coordinates": [
          50.82592036510108,
          -29.121676547469953
        ]
      }
    }
  ]
}